BEIDOU 3 (C01)          
1 36287U 10001A   21094.61178207 -.00000300  00000-0  00000-0 0  9990
2 36287   1.7636  43.0028 0003190  81.0582  69.7137  1.00270565 41111
BEIDOU 5 (C06)          
1 36828U 10036A   21094.63035427 -.00000193  00000-0  00000-0 0  9997
2 36828  54.1717 180.2803 0109538 234.6654 123.7776  1.00284239 39163
BEIDOU 6 (C04)          
1 37210U 10057A   21094.87542189 -.00000133  00000-0  00000-0 0  9994
2 37210   0.7366  38.8641 0001755 176.0290  93.4734  1.00273163 38239
BEIDOU 7 (C07)          
1 37256U 10068A   21094.29958282 -.00000197  00000-0  00000+0 0  9996
2 37256  50.9876 294.8780 0082254 215.6671 269.8315  1.00279104 37746
BEIDOU 8 (C08)          
1 37384U 11013A   21094.88409006 -.00000183  00000-0  00000-0 0  9995
2 37384  59.6789  58.6425 0053646 207.8742   4.9522  1.00274553 36621
BEIDOU 9 (C09)          
1 37763U 11038A   21094.68452191 -.00000115  00000-0  00000-0 0  9999
2 37763  54.4602 182.7125 0080165 224.9305 127.5052  1.00280521 35593
BEIDOU 10 (C10)         
1 37948U 11073A   21094.88218632 -.00000136  00000-0  00000-0 0  9998
2 37948  51.0867 294.4826 0069389 214.4999  97.8904  1.00269929 34358
BEIDOU 11 (C05)         
1 38091U 12008A   21094.96691788  .00000038  00000-0  00000-0 0  9993
2 38091   1.3971  65.5746 0009112 313.3796 221.3296  1.00268410 33432
BEIDOU 12 (C11)         
1 38250U 12018A   21094.87229108 -.00000115  00000-0  00000-0 0  9991
2 38250  56.7570   8.0413 0021633 252.2483  28.8888  1.86234161 60917
BEIDOU 13 (C12)         
1 38251U 12018B   21094.81874326 -.00000115  00000-0  00000-0 0  9994
2 38251  56.6799   7.3960 0013349 259.3953  30.2821  1.86234361 60910
BEIDOU 15 (C14)         
1 38775U 12050B   21094.81299600  .00000019  00000-0  00000-0 0  9999
2 38775  55.1727 126.4654 0015453 315.5090 167.6888  1.86232342 58297
BEIDOU 16 (C02)         
1 38953U 12059A   21094.97332700 -.00000195  00000-0  00000-0 0  9998
2 38953   1.7907  84.7957 0009401 279.6695 263.4202  1.00272760 31000
BEIDOU 17 (C31)         
1 40549U 15019A   21094.57576655 -.00000172  00000-0  00000+0 0  9990
2 40549  52.6095 317.8407 0036593 187.3699 351.5649  1.00282575 22030
BEIDOU 18 (C57)         
1 40748U 15037A   21094.94938167 -.00000116  00000-0  00000-0 0  9991
2 40748  55.9437   6.5238 0005592 359.1508 288.0802  1.86233465 38742
BEIDOU 19 (C58)         
1 40749U 15037B   21094.75288422 -.00000116  00000-0  00000-0 0  9993
2 40749  55.9467   6.5180 0006593 326.6778 325.2405  1.86232360 38737
BEIDOU 20 (C18)         
1 40938U 15053A   21094.88409007 -.00000098  00000-0  00000-0 0  9998
2 40938  52.1766 280.8945 0047068 189.6719 133.9934  1.00253643 20306
BEIDOU IGSO-6 (C13)     
1 41434U 16021A   21094.95078022 -.00000150  00000-0  00000-0 0  9992
2 41434  57.4613  57.4126 0040118 217.0127 357.6669  1.00284517 18439
BEIDOU-2 G7 (C03)       
1 41586U 16037A   21094.88521617 -.00000373  00000-0  00000-0 0  9999
2 41586   1.5471  65.0326 0010124  12.9544 184.6372  1.00269593 17744
BEIDOU-3 M1 (C19)       
1 43001U 17069A   21094.55699508  .00000018  00000-0  00000-0 0  9993
2 43001  55.3275 126.4156 0011539 286.7584 181.0300  1.86231817 23220
BEIDOU-3 M2 (C20)       
1 43002U 17069B   21094.50253869  .00000018  00000-0  00000-0 0  9995
2 43002  55.3274 126.4534 0010021 305.0052 169.8459  1.86231559 23211
BEIDOU-3 M3 (C27)       
1 43107U 18003A   21094.34507936 -.00000114  00000-0  00000-0 0  9997
2 43107  55.3847   7.6564 0005201  32.3446 142.8041  1.86232562 21971
BEIDOU-3 M4 (C28)       
1 43108U 18003B   21093.64408380 -.00000110  00000-0  00000-0 0  9999
2 43108  55.3790   7.6725 0003201 268.1063 202.2384  1.86232552 21969
BEIDOU-3 M5 (C21)       
1 43207U 18018A   21094.46382448  .00000017  00000-0  00000-0 0  9997
2 43207  55.2870 126.5487 0007109 321.3624  38.6459  1.86231670 21367
BEIDOU-3 M6 (C22)       
1 43208U 18018B   21093.99354985  .00000015  00000-0  00000-0 0  9998
2 43208  55.2851 126.5688 0009760 295.5560  64.4011  1.86231802 21353
BEIDOU-3 M7 (C29)       
1 43245U 18029A   21094.48015951 -.00000115  00000-0  00000-0 0  9995
2 43245  55.3197   5.4484 0001494 348.3201 187.5459  1.86232638 20510
BEIDOU-3 M8 (C30)       
1 43246U 18029B   21094.48751367 -.00000115  00000-0  10000-3 0  9998
2 43246  55.3160   5.4796 0005383 348.0907 238.8295  1.86232805 20501
BEIDOU IGSO-7 (C16)     
1 43539U 18057A   21094.65061495 -.00000161  00000-0  00000-0 0  9996
2 43539  55.0541 179.6172 0036568 220.1142 139.5210  1.00291587 10105
BEIDOU-3 M9 (C23)       
1 43581U 18062A   21094.74253058  .00000010  00000-0  00000-0 0  9999
2 43581  54.4328 247.1244 0001898 299.6323 308.1777  1.86231831 18255
BEIDOU-3 M10 (C24)      
1 43582U 18062B   21094.79822865  .00000009  00000-0  00000-0 0  9991
2 43582  54.4334 247.1126 0005715  16.6248 359.8237  1.86232070 18268
BEIDOU-3 M11 (C25)      
1 43602U 18067A   21094.53823606  .00000012  00000-0  00000-0 0  9999
2 43602  54.5101 245.6995 0007169   6.9221 237.5334  1.86231612 17742
BEIDOU-3 M12 (C26)      
1 43603U 18067B   21094.83679111  .00000008  00000-0  00000-0 0  9998
2 43603  54.5065 245.6552 0004317 359.8587 355.2455  1.86231584 17760
BEIDOU-3 M13 (C32)      
1 43622U 18072A   21094.19917017  .00000016  00000-0  00000+0 0  9992
2 43622  55.2515 126.1274 0008133 283.2804  34.5433  1.86231629 17263
BEIDOU-3 M14 (C33)      
1 43623U 18072B   21094.83887907  .00000020  00000-0  00000-0 0  9994
2 43623  55.2524 126.0971 0006369 302.7210 174.2331  1.86231611 17286
BEIDOU-3 M15 (C34)      
1 43647U 18078A   21094.68588235 -.00000116  00000-0  10000-3 0  9992
2 43647  55.2118   5.6365 0007791 352.3354 277.2637  1.86232711 16789
BEIDOU-3 M16 (C35)      
1 43648U 18078B   21094.82710131 -.00000117  00000-0  10000-3 0  9992
2 43648  55.2085   5.6414 0005663   2.2730 270.5866  1.86231978 16800
BEIDOU-3 G1 (C59)       
1 43683U 18085A   21094.82063281 -.00000300  00000-0  00000-0 0  9996
2 43683   1.1785 236.0912 0002349  62.6018 330.0684  1.00268396  9022
BEIDOU-3 M17 (C36)      
1 43706U 18093A   21094.53117267  .00000013  00000-0  00000-0 0  9993
2 43706  54.5139 246.9842 0007649 274.8060  56.2480  1.86231822 16147
BEIDOU-3 M18 (C37)      
1 43707U 18093B   21094.80812111  .00000009  00000-0  00000-0 0  9999
2 43707  54.5145 246.9664 0006900 306.0131 301.5088  1.86232071 16151
BEIDOU-3 IGSO-1 (C38)   
1 44204U 19023A   21093.82132635 -.00000204  00000-0  00000-0 0  9991
2 44204  55.9156  57.7251 0016109 206.2971 337.1787  1.00261873  7302
BEIDOU-2 G8             
1 44231U 19027A   21094.82063281 -.00000267  00000-0  00000-0 0  9995
2 44231   0.3666 322.6716 0005343 244.5236  66.1292  1.00272470  7023
BEIDOU-3 IGSO-2 (C39)   
1 44337U 19035A   21094.64948088 -.00000143  00000-0  00000-0 0  9991
2 44337  55.0859 175.6580 0017632 192.4046 164.1873  1.00254784  6649
BEIDOU-3 M23 (C45)      
1 44542U 19061A   21094.87685920  .00000009  00000-0  10000-3 0  9990
2 44542  54.7393 247.0294 0007765 342.7455 264.1607  1.86231293 10412
BEIDOU-3 M24 (C46)      
1 44543U 19061B   21094.59148622  .00000013  00000-0  10000-3 0  9998
2 44543  54.7383 247.0090 0004871 339.6079 346.7198  1.86231696 10417
BEIDOU-3 IGSO-3         
1 44709U 19073A   21094.52290903 -.00000142  00000-0  00000-0 0  9998
2 44709  57.9803 300.9097 0020723 195.9198 348.7022  1.00294040  5407
BEIDOU-3 M21            
1 44793U 19078A   21093.50331462 -.00000110  00000-0  10000-3 0  9998
2 44793  55.0593   5.7543 0007584 357.3764 153.9084  1.86232350  9255
BEIDOU-3 M22            
1 44794U 19078B   21094.21112597 -.00000114  00000-0  00000+0 0  9993
2 44794  55.0360   5.7294 0005557 353.1792 183.5051  1.86232946  9269
BEIDOU-3 M19            
1 44864U 19090A   21094.36321920  .00000016  00000-0  00000-0 0  9994
2 44864  55.1860 126.3575 0017633 266.4118 206.8442  1.86231885  8859
BEIDOU-3 M20            
1 44865U 19090B   21094.80087332  .00000019  00000-0  00000-0 0  9993
2 44865  55.1870 126.3750 0016523 280.8819 215.7159  1.86231492  8848
BEIDOU-3 G2             
1 45344U 20017A   21094.64424674 -.00000161  00000-0  00000+0 0  9991
2 45344   2.5325 334.4542 0003658  80.7486  89.8895  1.00270815  4228
BEIDOU-3 G3             
1 45807U 20040A   21094.90715131 -.00000376  00000-0  00000-0 0  9990
2 45807   2.4552 298.4061 0008374  16.4709 315.6580  1.00269244  3035
